CCSDS_OMM_VERS = 2.0
CREATION_DATE  = 
ORIGINATOR     = 

OBJECT_NAME    = SL-14 R/B
OBJECT_ID      = 1986-046B
CENTER_NAME    = EARTH
REF_FRAME      = TEME
TIME_SYSTEM    = UTC
MEAN_ELEMENT_THEORY = SGP/SGP4

EPOCH          = 2026-03-20T22:06:03.640608
MEAN_MOTION    = 14.85600580
ECCENTRICITY   = .00228427
INCLINATION    = 82.4791
RA_OF_ASC_NODE = 69.5663
ARG_OF_PERICENTER = 187.0479
MEAN_ANOMALY   = 173.0419

EPHEMERIS_TYPE = 0
CLASSIFICATION_TYPE = U
NORAD_CAT_ID   = 16792
ELEMENT_SET_NO = 999
REV_AT_EPOCH   = 12807
BSTAR          = .43984626E-4
MEAN_MOTION_DOT = .407E-5
MEAN_MOTION_DDOT = 0

CCSDS_OMM_VERS = 2.0
CREATION_DATE  = 
ORIGINATOR     = 

OBJECT_NAME    = SL-14 R/B
OBJECT_ID      = 1986-055B
CENTER_NAME    = EARTH
REF_FRAME      = TEME
TIME_SYSTEM    = UTC
MEAN_ELEMENT_THEORY = SGP/SGP4

EPOCH          = 2026-03-20T08:49:28.490304
MEAN_MOTION    = 14.85651520
ECCENTRICITY   = .00174908
INCLINATION    = 82.5181
RA_OF_ASC_NODE = 116.6361
ARG_OF_PERICENTER = 299.2069
MEAN_ANOMALY   = 71.1690

EPHEMERIS_TYPE = 0
CLASSIFICATION_TYPE = U
NORAD_CAT_ID   = 16882
ELEMENT_SET_NO = 999
REV_AT_EPOCH   = 12095
BSTAR          = .40285266E-4
MEAN_MOTION_DOT = .374E-5
MEAN_MOTION_DDOT = 0

CCSDS_OMM_VERS = 2.0
CREATION_DATE  = 
ORIGINATOR     = 

OBJECT_NAME    = AJISAI (EGS)
OBJECT_ID      = 1986-061A
CENTER_NAME    = EARTH
REF_FRAME      = TEME
TIME_SYSTEM    = UTC
MEAN_ELEMENT_THEORY = SGP/SGP4

EPOCH          = 2026-03-20T22:51:14.482944
MEAN_MOTION    = 12.44515668
ECCENTRICITY   = .0011309
INCLINATION    = 50.0094
RA_OF_ASC_NODE = 58.7137
ARG_OF_PERICENTER = 316.0405
MEAN_ANOMALY   = 85.4446

EPHEMERIS_TYPE = 0
CLASSIFICATION_TYPE = U
NORAD_CAT_ID   = 16908
ELEMENT_SET_NO = 999
REV_AT_EPOCH   = 46940
BSTAR          = -.12483208E-3
MEAN_MOTION_DOT = -.115E-5
MEAN_MOTION_DDOT = 0

CCSDS_OMM_VERS = 2.0
CREATION_DATE  = 
ORIGINATOR     = 

OBJECT_NAME    = SL-14 R/B
OBJECT_ID      = 1987-024B
CENTER_NAME    = EARTH
REF_FRAME      = TEME
TIME_SYSTEM    = UTC
MEAN_ELEMENT_THEORY = SGP/SGP4

EPOCH          = 2026-03-20T09:52:36.890976
MEAN_MOTION    = 14.86141678
ECCENTRICITY   = .00171341
INCLINATION    = 82.5245
RA_OF_ASC_NODE = 82.6830
ARG_OF_PERICENTER = 221.5933
MEAN_ANOMALY   = 138.3981

EPHEMERIS_TYPE = 0
CLASSIFICATION_TYPE = U
NORAD_CAT_ID   = 17567
ELEMENT_SET_NO = 999
REV_AT_EPOCH   = 8972
BSTAR          = .43509339E-4
MEAN_MOTION_DOT = .406E-5
MEAN_MOTION_DDOT = 0

CCSDS_OMM_VERS = 2.0
CREATION_DATE  = 
ORIGINATOR     = 

OBJECT_NAME    = COSMOS 1833
OBJECT_ID      = 1987-027A
CENTER_NAME    = EARTH
REF_FRAME      = TEME
TIME_SYSTEM    = UTC
MEAN_ELEMENT_THEORY = SGP/SGP4

EPOCH          = 2026-03-20T21:41:00.158784
MEAN_MOTION    = 14.13051086
ECCENTRICITY   = .00236851
INCLINATION    = 70.9193
RA_OF_ASC_NODE = 302.4504
ARG_OF_PERICENTER = 198.3571
MEAN_ANOMALY   = 161.6698

EPHEMERIS_TYPE = 0
CLASSIFICATION_TYPE = U
NORAD_CAT_ID   = 17589
ELEMENT_SET_NO = 999
REV_AT_EPOCH   = 1190
BSTAR          = -.10718452E-3
MEAN_MOTION_DOT = -.249E-5
MEAN_MOTION_DDOT = 0

CCSDS_OMM_VERS = 2.0
CREATION_DATE  = 
ORIGINATOR     = 

OBJECT_NAME    = SL-16 R/B
OBJECT_ID      = 1987-027B
CENTER_NAME    = EARTH
REF_FRAME      = TEME
TIME_SYSTEM    = UTC
MEAN_ELEMENT_THEORY = SGP/SGP4

EPOCH          = 2026-03-20T21:57:54.170784
MEAN_MOTION    = 14.17166532
ECCENTRICITY   = .00030086
INCLINATION    = 70.9993
RA_OF_ASC_NODE = 252.8376
ARG_OF_PERICENTER = 116.6940
MEAN_ANOMALY   = 243.4492

EPHEMERIS_TYPE = 0
CLASSIFICATION_TYPE = U
NORAD_CAT_ID   = 17590
ELEMENT_SET_NO = 999
REV_AT_EPOCH   = 1693
BSTAR          = -.48190082E-4
MEAN_MOTION_DOT = -.145E-5
MEAN_MOTION_DDOT = 0

CCSDS_OMM_VERS = 2.0
CREATION_DATE  = 
ORIGINATOR     = 

OBJECT_NAME    = SL-14 R/B
OBJECT_ID      = 1987-038B
CENTER_NAME    = EARTH
REF_FRAME      = TEME
TIME_SYSTEM    = UTC
MEAN_ELEMENT_THEORY = SGP/SGP4

EPOCH          = 2026-03-20T22:49:21.252288
MEAN_MOTION    = 14.85378608
ECCENTRICITY   = .00204878
INCLINATION    = 82.4984
RA_OF_ASC_NODE = 286.1970
ARG_OF_PERICENTER = 124.9046
MEAN_ANOMALY   = 235.4099

EPHEMERIS_TYPE = 0
CLASSIFICATION_TYPE = U
NORAD_CAT_ID   = 17912
ELEMENT_SET_NO = 999
REV_AT_EPOCH   = 8090
BSTAR          = .41001685E-4
MEAN_MOTION_DOT = .379E-5
MEAN_MOTION_DDOT = 0

CCSDS_OMM_VERS = 2.0
CREATION_DATE  = 
ORIGINATOR     = 

OBJECT_NAME    = COSMOS 1844
OBJECT_ID      = 1987-041A
CENTER_NAME    = EARTH
REF_FRAME      = TEME
TIME_SYSTEM    = UTC
MEAN_ELEMENT_THEORY = SGP/SGP4

EPOCH          = 2026-03-20T22:14:29.906592
MEAN_MOTION    = 14.14551697
ECCENTRICITY   = .00305859
INCLINATION    = 70.9010
RA_OF_ASC_NODE = 10.4741
ARG_OF_PERICENTER = 1.4857
MEAN_ANOMALY   = 358.6349

EPHEMERIS_TYPE = 0
CLASSIFICATION_TYPE = U
NORAD_CAT_ID   = 17973
ELEMENT_SET_NO = 999
REV_AT_EPOCH   = 517
BSTAR          = .84151238E-4
MEAN_MOTION_DOT = .114E-5
MEAN_MOTION_DDOT = 0

CCSDS_OMM_VERS = 2.0
CREATION_DATE  = 
ORIGINATOR     = 

OBJECT_NAME    = SL-14 R/B
OBJECT_ID      = 1987-055B
CENTER_NAME    = EARTH
REF_FRAME      = TEME
TIME_SYSTEM    = UTC
MEAN_ELEMENT_THEORY = SGP/SGP4

EPOCH          = 2026-03-20T18:59:13.694208
MEAN_MOTION    = 14.85640629
ECCENTRICITY   = .00201408
INCLINATION    = 82.5023
RA_OF_ASC_NODE = 338.5711
ARG_OF_PERICENTER = 341.1832
MEAN_ANOMALY   = 18.8637

EPHEMERIS_TYPE = 0
CLASSIFICATION_TYPE = U
NORAD_CAT_ID   = 18153
ELEMENT_SET_NO = 999
REV_AT_EPOCH   = 7158
BSTAR          = .46907359E-4
MEAN_MOTION_DOT = .432E-5
MEAN_MOTION_DDOT = 0

CCSDS_OMM_VERS = 2.0
CREATION_DATE  = 
ORIGINATOR     = 

OBJECT_NAME    = COSMOS 1867
OBJECT_ID      = 1987-060A
CENTER_NAME    = EARTH
REF_FRAME      = TEME
TIME_SYSTEM    = UTC
MEAN_ELEMENT_THEORY = SGP/SGP4

EPOCH          = 2026-03-20T21:33:55.456992
MEAN_MOTION    = 14.31504639
ECCENTRICITY   = .00146585
INCLINATION    = 65.0093
RA_OF_ASC_NODE = 275.3140
ARG_OF_PERICENTER = 279.3261
MEAN_ANOMALY   = 80.6166

EPHEMERIS_TYPE = 0
CLASSIFICATION_TYPE = U
NORAD_CAT_ID   = 18187
ELEMENT_SET_NO = 999
REV_AT_EPOCH   = 2154
BSTAR          = .24702463E-4
MEAN_MOTION_DOT = -.34E-6
MEAN_MOTION_DDOT = 0

CCSDS_OMM_VERS = 2.0
CREATION_DATE  = 
ORIGINATOR     = 

OBJECT_NAME    = SL-14 R/B
OBJECT_ID      = 1988-001B
CENTER_NAME    = EARTH
REF_FRAME      = TEME
TIME_SYSTEM    = UTC
MEAN_ELEMENT_THEORY = SGP/SGP4

EPOCH          = 2026-03-20T18:53:37.628448
MEAN_MOTION    = 14.85540147
ECCENTRICITY   = .0017626
INCLINATION    = 82.5161
RA_OF_ASC_NODE = 184.9255
ARG_OF_PERICENTER = 197.1683
MEAN_ANOMALY   = 162.8940

EPHEMERIS_TYPE = 0
CLASSIFICATION_TYPE = U
NORAD_CAT_ID   = 18749
ELEMENT_SET_NO = 999
REV_AT_EPOCH   = 4367
BSTAR          = .54132E-4
MEAN_MOTION_DOT = .493E-5
MEAN_MOTION_DDOT = 0

CCSDS_OMM_VERS = 2.0
CREATION_DATE  = 
ORIGINATOR     = 

OBJECT_NAME    = COSMOS 1933
OBJECT_ID      = 1988-020A
CENTER_NAME    = EARTH
REF_FRAME      = TEME
TIME_SYSTEM    = UTC
MEAN_ELEMENT_THEORY = SGP/SGP4

EPOCH          = 2026-03-20T22:19:12.373248
MEAN_MOTION    = 15.18081803
ECCENTRICITY   = .00047868
INCLINATION    = 82.5108
RA_OF_ASC_NODE = 239.7874
ARG_OF_PERICENTER = 146.1742
MEAN_ANOMALY   = 213.9798

EPHEMERIS_TYPE = 0
CLASSIFICATION_TYPE = U
NORAD_CAT_ID   = 18958
ELEMENT_SET_NO = 999
REV_AT_EPOCH   = 5193
BSTAR          = .21303924E-3
MEAN_MOTION_DOT = .4371E-4
MEAN_MOTION_DDOT = 0

